[{"OBJECT_NAME":"STARLINK-5310","OBJECT_ID":"2023-010D","EPOCH":"2026-03-09T22:37:24.206592","MEAN_MOTION":14.98335809,"ECCENTRICITY":0.00036598,"INCLINATION":69.9998,"RA_OF_ASC_NODE":43.833,"ARG_OF_PERICENTER":271.93,"MEAN_ANOMALY":88.144,"EPHEMERIS_TYPE":0,"CLASSIFICATION_TYPE":"U","NORAD_CAT_ID":55272,"ELEMENT_SET_NO":999,"REV_AT_EPOCH":17282,"BSTAR":-0.00029012162,"MEAN_MOTION_DOT":-3.554e-5,"MEAN_MOTION_DDOT":0},{"OBJECT_NAME":"RAPIDEYE 1","OBJECT_ID":"2008-040C","EPOCH":"2026-03-09T15:08:44.758176","MEAN_MOTION":15.03049091,"ECCENTRICITY":0.0028174,"INCLINATION":97.4223,"RA_OF_ASC_NODE":100.7722,"ARG_OF_PERICENTER":157.1968,"MEAN_ANOMALY":203.0516,"EPHEMERIS_TYPE":0,"CLASSIFICATION_TYPE":"U","NORAD_CAT_ID":33314,"ELEMENT_SET_NO":999,"REV_AT_EPOCH":95070,"BSTAR":0.00023277,"MEAN_MOTION_DOT":3.104e-5,"MEAN_MOTION_DDOT":0}]
